[{"OBJECT_NAME":"STARLINK-5043","OBJECT_ID":"2022-119J","EPOCH":"2026-03-09T22:50:17.699136","MEAN_MOTION":15.08840442,"ECCENTRICITY":0.00014045,"INCLINATION":53.2197,"RA_OF_ASC_NODE":322.987,"ARG_OF_PERICENTER":100.7149,"MEAN_ANOMALY":259.4002,"EPHEMERIS_TYPE":0,"CLASSIFICATION_TYPE":"U","NORAD_CAT_ID":53894,"ELEMENT_SET_NO":999,"REV_AT_EPOCH":19172,"BSTAR":3.3499785e-5,"MEAN_MOTION_DOT":2.45e-6,"MEAN_MOTION_DDOT":0},{"OBJECT_NAME":"OBJECT D","OBJECT_ID":"2025-013D","EPOCH":"2026-03-09T22:45:56.369376","MEAN_MOTION":15.10588544,"ECCENTRICITY":0.0008827,"INCLINATION":97.6457,"RA_OF_ASC_NODE":238.3603,"ARG_OF_PERICENTER":18.3993,"MEAN_ANOMALY":341.7554,"EPHEMERIS_TYPE":0,"CLASSIFICATION_TYPE":"U","NORAD_CAT_ID":62732,"ELEMENT_SET_NO":999,"REV_AT_EPOCH":6229,"BSTAR":0.00036300228,"MEAN_MOTION_DOT":5.935e-5,"MEAN_MOTION_DDOT":0}]
